[{"OBJECT_NAME":"STARLINK-31610","OBJECT_ID":"2024-068U","EPOCH":"2026-03-09T06:57:28.653408","MEAN_MOTION":15.27581319,"ECCENTRICITY":9.735e-5,"INCLINATION":43.0045,"RA_OF_ASC_NODE":36.5943,"ARG_OF_PERICENTER":265.7582,"MEAN_ANOMALY":94.3159,"EPHEMERIS_TYPE":0,"CLASSIFICATION_TYPE":"U","NORAD_CAT_ID":59473,"ELEMENT_SET_NO":999,"REV_AT_EPOCH":10846,"BSTAR":-2.3710822e-5,"MEAN_MOTION_DOT":-9.14e-6,"MEAN_MOTION_DDOT":0},{"OBJECT_NAME":"TRANSPORTER-1 OBJECT Z","OBJECT_ID":"2021-006Z","EPOCH":"2026-03-09T22:55:57.522432","MEAN_MOTION":15.30965056,"ECCENTRICITY":0.00100878,"INCLINATION":97.2377,"RA_OF_ASC_NODE":113.4736,"ARG_OF_PERICENTER":179.6869,"MEAN_ANOMALY":180.438,"EPHEMERIS_TYPE":0,"CLASSIFICATION_TYPE":"U","NORAD_CAT_ID":47436,"ELEMENT_SET_NO":999,"REV_AT_EPOCH":28420,"BSTAR":0.00024088983,"MEAN_MOTION_DOT":7.143e-5,"MEAN_MOTION_DDOT":0}]
